[
  {
    "name": "Cannington",
    "postcode": "6107"
  },
  {
    "name": "Midland",
    "postcode": "6057"
  },
  {
    "name": "Hay Street",
    "postcode": "6000"
  },
  {
    "name": "Mount Adams",
    "postcode": "6525"
  },
  {
    "name": "Koolan Island",
    "postcode": "6733"
  },
  {
    "name": "Armadale",
    "postcode": "6992"
  },
  {
    "name": "Lesmurdie",
    "postcode": "6076"
  },
  {
    "name": "Kalamunda",
    "postcode": "6076"
  },
  {
    "name": "Carmel",
    "postcode": "6076"
  },
  {
    "name": "Bentley",
    "postcode": "6102"
  },
  {
    "name": "Akunda Bay",
    "postcode": "2084"
  },
  {
    "name": "Werrington County",
    "postcode": "2747"
  },
  {
    "name": "Bagot",
    "postcode": "0820"
  },
  {
    "name": "Yirrkala",
    "postcode": "0880"
  },
  {
    "name": "University of Melbourne",
    "postcode": "3010"
  },
  {
    "name": "Norfolk Island",
    "postcode": "2899"
  },
  {
    "name": "Ootha",
    "postcode": "2875"
  },
  {
    "name": "Kent Town",
    "postcode": "5067"
  },
  {
    "name": "Northgate Mc",
    "postcode": "9464"
  },
  {
    "name": "Gold Coast Mc",
    "postcode": "9729"
  }
]